start=new Date('2023-01-26T00:00:00.000Z').valueOf();
sats=[{"COUNTRY_CODE":"US","FILE":"3761360","APOAPSIS":"540.599","OBJECT_TYPE":"PAYLOAD","ECCENTRICITY":"0.00012100","OBJECT_ID":"2022-016AD","TIME_SYSTEM":"UTC","GP_ID":"223717583","ARG_OF_PERICENTER":"92.2441","MEAN_ANOMALY":"267.8690","ELEMENT_SET_NO":"999","LAUNCH_DATE":"2022-02-21","SEMIMAJOR_AXIS":"6917.897","SITE":"AFETR","PERIOD":"95.438","MEAN_MOTION":"15.08834481","MEAN_MOTION_DDOT":"0.0000000000000","CLASSIFICATION_TYPE":"U","MEAN_ELEMENT_THEORY":"SGP4","PERIAPSIS":"538.925","EPHEMERIS_TYPE":"0","DECAY_DATE":null,"EPOCH":"2023-01-25T17:01:23.691072","NORAD_CAT_ID":"51741","REF_FRAME":"TEME","RCS_SIZE":"LARGE","INCLINATION":"53.2154","OBJECT_NAME":"STARLINK-3520","CENTER_NAME":"EARTH","RA_OF_ASC_NODE":"32.2095","REV_AT_EPOCH":"5161","BSTAR":"0.00017099000000","TLE_LINE2":"2 51741  53.2154  32.2095 0001210  92.2441 267.8690 15.08834481 51610","MEAN_MOTION_DOT":"0.00002434","TLE_LINE1":"1 51741U 22016AD  23025.70930198  .00002434  00000-0  17099-3 0  9990"},{"MEAN_MOTION_DDOT":"0.0000000000000","MEAN_MOTION":"15.08851494","PERIOD":"95.437","EPHEMERIS_TYPE":"0","DECAY_DATE":null,"EPOCH":"2023-01-25T07:07:52.623840","CLASSIFICATION_TYPE":"U","MEAN_ELEMENT_THEORY":"SGP4","PERIAPSIS":"538.899","OBJECT_TYPE":"PAYLOAD","OBJECT_ID":"2022-016AE","ECCENTRICITY":"0.00011730","TIME_SYSTEM":"UTC","ARG_OF_PERICENTER":"94.7141","GP_ID":"223693948","COUNTRY_CODE":"US","FILE":"3761339","APOAPSIS":"540.522","SITE":"AFETR","MEAN_ANOMALY":"265.3985","LAUNCH_DATE":"2022-02-21","ELEMENT_SET_NO":"999","SEMIMAJOR_AXIS":"6917.845","BSTAR":"0.00044882000000","TLE_LINE2":"2 51742  53.2164  34.0572 0001173  94.7141 265.3985 15.08851494 52685","MEAN_MOTION_DOT":"0.00006865","REV_AT_EPOCH":"5268","TLE_LINE1":"1 51742U 22016AE  23025.29713685  .00006865  00000-0  44882-3 0  9997","INCLINATION":"53.2164","NORAD_CAT_ID":"51742","REF_FRAME":"TEME","RCS_SIZE":"LARGE","CENTER_NAME":"EARTH","RA_OF_ASC_NODE":"34.0572","OBJECT_NAME":"STARLINK-3521"},{"PERIOD":"95.437","MEAN_MOTION_DDOT":"0.0000000000000","MEAN_MOTION":"15.08843322","MEAN_ELEMENT_THEORY":"SGP4","PERIAPSIS":"538.790","CLASSIFICATION_TYPE":"U","EPOCH":"2023-01-25T17:18:37.092096","DECAY_DATE":null,"EPHEMERIS_TYPE":"0","APOAPSIS":"540.681","FILE":"3761360","COUNTRY_CODE":"US","GP_ID":"223718585","ARG_OF_PERICENTER":"102.2100","TIME_SYSTEM":"UTC","OBJECT_ID":"2022-016AF","ECCENTRICITY":"0.00013670","OBJECT_TYPE":"PAYLOAD","SEMIMAJOR_AXIS":"6917.870","LAUNCH_DATE":"2022-02-21","ELEMENT_SET_NO":"999","MEAN_ANOMALY":"257.9046","SITE":"AFETR","REV_AT_EPOCH":"5175","MEAN_MOTION_DOT":"0.00003164","TLE_LINE2":"2 51743  53.2190  22.1432 0001367 102.2100 257.9046 15.08843322 51756","BSTAR":"0.00021677000000","TLE_LINE1":"1 51743U 22016AF  23025.72126264  .00003164  00000-0  21677-3 0  9993","RCS_SIZE":"LARGE","REF_FRAME":"TEME","NORAD_CAT_ID":"51743","INCLINATION":"53.2190","OBJECT_NAME":"STARLINK-3512","RA_OF_ASC_NODE":"22.1432","CENTER_NAME":"EARTH"},{"MEAN_MOTION":"15.08844652","MEAN_MOTION_DDOT":"0.0000000000000","PERIOD":"95.437","EPHEMERIS_TYPE":"0","EPOCH":"2023-01-25T06:58:39.586080","DECAY_DATE":null,"CLASSIFICATION_TYPE":"U","MEAN_ELEMENT_THEORY":"SGP4","PERIAPSIS":"538.812","OBJECT_ID":"2022-016AG","ECCENTRICITY":"0.00013280","OBJECT_TYPE":"PAYLOAD","GP_ID":"223689037","ARG_OF_PERICENTER":"96.4520","TIME_SYSTEM":"UTC","COUNTRY_CODE":"US","APOAPSIS":"540.650","FILE":"3761297","SITE":"AFETR","ELEMENT_SET_NO":"999","LAUNCH_DATE":"2022-02-21","MEAN_ANOMALY":"263.6623","SEMIMAJOR_AXIS":"6917.866","BSTAR":"0.00038987000000","MEAN_MOTION_DOT":"0.00005923","TLE_LINE2":"2 51744  53.2162  34.0869 0001328  96.4520 263.6623 15.08844652 51559","REV_AT_EPOCH":"5155","TLE_LINE1":"1 51744U 22016AG  23025.29073595  .00005923  00000-0  38987-3 0  9991","INCLINATION":"53.2162","NORAD_CAT_ID":"51744","RCS_SIZE":"LARGE","REF_FRAME":"TEME","CENTER_NAME":"EARTH","RA_OF_ASC_NODE":"34.0869","OBJECT_NAME":"STARLINK-3452"},{"TLE_LINE1":"1 51745U 22016AH  23025.70193947  .00003360  00000-0  22910-3 0  9994","REV_AT_EPOCH":"5161","BSTAR":"0.00022910000000","TLE_LINE2":"2 51745  53.2161  32.2410 0001333  92.9267 267.1878 15.08844035 51619","MEAN_MOTION_DOT":"0.00003360","OBJECT_NAME":"STARLINK-3449","CENTER_NAME":"EARTH","RA_OF_ASC_NODE":"32.2410","NORAD_CAT_ID":"51745","REF_FRAME":"TEME","RCS_SIZE":"LARGE","INCLINATION":"53.2161","CLASSIFICATION_TYPE":"U","MEAN_ELEMENT_THEORY":"SGP4","PERIAPSIS":"538.811","EPHEMERIS_TYPE":"0","DECAY_DATE":null,"EPOCH":"2023-01-25T16:50:47.570208","PERIOD":"95.437","MEAN_MOTION":"15.08844035","MEAN_MOTION_DDOT":"0.0000000000000","MEAN_ANOMALY":"267.1878","ELEMENT_SET_NO":"999","LAUNCH_DATE":"2022-02-21","SEMIMAJOR_AXIS":"6917.868","SITE":"AFETR","COUNTRY_CODE":"US","FILE":"3761360","APOAPSIS":"540.655","OBJECT_TYPE":"PAYLOAD","ECCENTRICITY":"0.00013330","OBJECT_ID":"2022-016AH","TIME_SYSTEM":"UTC","GP_ID":"223717084","ARG_OF_PERICENTER":"92.9267"},{"MEAN_MOTION":"15.08866283","MEAN_MOTION_DDOT":"0.0000000000000","PERIOD":"95.436","EPOCH":"2023-01-25T17:13:18.747840","DECAY_DATE":null,"EPHEMERIS_TYPE":"0","PERIAPSIS":"538.831","MEAN_ELEMENT_THEORY":"SGP4","CLASSIFICATION_TYPE":"U","ARG_OF_PERICENTER":"86.9031","GP_ID":"223717334","TIME_SYSTEM":"UTC","OBJECT_ID":"2022-016AJ","ECCENTRICITY":"0.00012050","OBJECT_TYPE":"PAYLOAD","APOAPSIS":"540.499","FILE":"3761360","COUNTRY_CODE":"US","SITE":"AFETR","SEMIMAJOR_AXIS":"6917.800","LAUNCH_DATE":"2022-02-21","ELEMENT_SET_NO":"999","MEAN_ANOMALY":"273.2099","MEAN_MOTION_DOT":"0.00027088","TLE_LINE2":"2 51746  53.2165  22.1690 0001205  86.9031 273.2099 15.08866283 51759","BSTAR":"0.00171230000000","REV_AT_EPOCH":"5175","TLE_LINE1":"1 51746U 22016AJ  23025.71757810  .00027088  00000-0  17123-2 0  9993","INCLINATION":"53.2165","RCS_SIZE":"LARGE","REF_FRAME":"TEME","NORAD_CAT_ID":"51746","RA_OF_ASC_NODE":"22.1690","CENTER_NAME":"EARTH","OBJECT_NAME":"STARLINK-3502"},{"MEAN_MOTION_DOT":"0.00005800","TLE_LINE2":"2 51747  53.2165  34.0749 0001252  94.9649 265.1486 15.08849062 51557","BSTAR":"0.00038210000000","REV_AT_EPOCH":"5155","TLE_LINE1":"1 51747U 22016AK  23025.29345985  .00005800  00000-0  38210-3 0  9992","INCLINATION":"53.2165","RCS_SIZE":"LARGE","REF_FRAME":"TEME","NORAD_CAT_ID":"51747","RA_OF_ASC_NODE":"34.0749","CENTER_NAME":"EARTH","OBJECT_NAME":"STARLINK-3446","MEAN_MOTION_DDOT":"0.0000000000000","MEAN_MOTION":"15.08849062","PERIOD":"95.437","EPOCH":"2023-01-25T07:02:34.931040","DECAY_DATE":null,"EPHEMERIS_TYPE":"0","PERIAPSIS":"538.852","MEAN_ELEMENT_THEORY":"SGP4","CLASSIFICATION_TYPE":"U","GP_ID":"223690789","ARG_OF_PERICENTER":"94.9649","TIME_SYSTEM":"UTC","ECCENTRICITY":"0.00012520","OBJECT_ID":"2022-016AK","OBJECT_TYPE":"PAYLOAD","APOAPSIS":"540.584","FILE":"3761297","COUNTRY_CODE":"US","SITE":"AFETR","SEMIMAJOR_AXIS":"6917.853","ELEMENT_SET_NO":"999","LAUNCH_DATE":"2022-02-21","MEAN_ANOMALY":"265.1486"},{"OBJECT_NAME":"STARLINK-3501","CENTER_NAME":"EARTH","RA_OF_ASC_NODE":"22.2065","NORAD_CAT_ID":"51748","RCS_SIZE":"LARGE","REF_FRAME":"TEME","INCLINATION":"53.2170","TLE_LINE1":"1 51748U 22016AL  23025.71022414  .00000477  00000-0  48041-4 0  9998","REV_AT_EPOCH":"5175","BSTAR":"0.00004804100000","MEAN_MOTION_DOT":"0.00000477","TLE_LINE2":"2 51748  53.2170  22.2065 0001607  84.1698 275.9477 15.08836817 51758","ELEMENT_SET_NO":"999","LAUNCH_DATE":"2022-02-21","MEAN_ANOMALY":"275.9477","SEMIMAJOR_AXIS":"6917.890","SITE":"AFETR","COUNTRY_CODE":"US","APOAPSIS":"540.867","FILE":"3761360","ECCENTRICITY":"0.00016070","OBJECT_ID":"2022-016AL","OBJECT_TYPE":"PAYLOAD","ARG_OF_PERICENTER":"84.1698","GP_ID":"223718836","TIME_SYSTEM":"UTC","CLASSIFICATION_TYPE":"U","MEAN_ELEMENT_THEORY":"SGP4","PERIAPSIS":"538.643","EPHEMERIS_TYPE":"0","EPOCH":"2023-01-25T17:02:43.365696","DECAY_DATE":null,"PERIOD":"95.438","MEAN_MOTION":"15.08836817","MEAN_MOTION_DDOT":"0.0000000000000"},{"TLE_LINE1":"1 51749U 22016AM  23025.72130029  .00002316  00000-0  16358-3 0  9991","REV_AT_EPOCH":"5161","BSTAR":"0.00016358000000","MEAN_MOTION_DOT":"0.00002316","TLE_LINE2":"2 51749  53.2168  32.1486 0001377  94.1042 266.0108 15.08839897 51619","OBJECT_NAME":"STARLINK-3451","CENTER_NAME":"EARTH","RA_OF_ASC_NODE":"32.1486","NORAD_CAT_ID":"51749","RCS_SIZE":"LARGE","REF_FRAME":"TEME","INCLINATION":"53.2168","CLASSIFICATION_TYPE":"U","MEAN_ELEMENT_THEORY":"SGP4","PERIAPSIS":"538.793","EPHEMERIS_TYPE":"0","EPOCH":"2023-01-25T17:18:40.345056","DECAY_DATE":null,"PERIOD":"95.438","MEAN_MOTION_DDOT":"0.0000000000000","MEAN_MOTION":"15.08839897","LAUNCH_DATE":"2022-02-21","ELEMENT_SET_NO":"999","MEAN_ANOMALY":"266.0108","SEMIMAJOR_AXIS":"6917.881","SITE":"AFETR","COUNTRY_CODE":"US","APOAPSIS":"540.698","FILE":"3761360","ECCENTRICITY":"0.00013770","OBJECT_ID":"2022-016AM","OBJECT_TYPE":"PAYLOAD","ARG_OF_PERICENTER":"94.1042","GP_ID":"223717584","TIME_SYSTEM":"UTC"},{"RA_OF_ASC_NODE":"23.7253","CENTER_NAME":"EARTH","OBJECT_NAME":"STARLINK-3505","INCLINATION":"53.2161","REF_FRAME":"TEME","RCS_SIZE":"LARGE","NORAD_CAT_ID":"51750","TLE_LINE1":"1 51750U 22016AN  23025.37166431  .00024898  00000-0  15757-2 0  9990","TLE_LINE2":"2 51750  53.2161  23.7253 0001587  94.4285 265.6889 15.08868131 51701","MEAN_MOTION_DOT":"0.00024898","BSTAR":"0.00157570000000","REV_AT_EPOCH":"5170","SITE":"AFETR","SEMIMAJOR_AXIS":"6917.794","MEAN_ANOMALY":"265.6889","LAUNCH_DATE":"2022-02-21","ELEMENT_SET_NO":"999","TIME_SYSTEM":"UTC","ARG_OF_PERICENTER":"94.4285","GP_ID":"223690037","OBJECT_TYPE":"PAYLOAD","ECCENTRICITY":"0.00015870","OBJECT_ID":"2022-016AN","FILE":"3761297","APOAPSIS":"540.757","COUNTRY_CODE":"US","DECAY_DATE":null,"EPOCH":"2023-01-25T08:55:11.796384","EPHEMERIS_TYPE":"0","MEAN_ELEMENT_THEORY":"SGP4","PERIAPSIS":"538.562","CLASSIFICATION_TYPE":"U","MEAN_MOTION":"15.08868131","MEAN_MOTION_DDOT":"0.0000000000000","PERIOD":"95.436"}];
